HERMES-3                
1 63835U 25052BR  26068.93751242  .00020316  00000+0  69958-3 0  9995
2 63835  97.3987 324.6131 0007993 112.9583 247.2502 15.30039785 54863
STARLINK-35924          
1 66516U 25265A   26068.93258843  .00041443  00000+0  15061-2 0  9998
2 66516  43.0005 276.3057 0002201 256.5279 103.5327 15.27601307 17156
